NORAD_CAT_ID,OBJECT_NAME,OBJECT_TYPE,EPOCH,MEAN_MOTION,ECCENTRICITY,INCLINATION,RA_OF_ASC_NODE,ARG_OF_PERICENTER,MEAN_ANOMALY,BSTAR,MEAN_MOTION_DOT,MEAN_MOTION_DDOT,TLE_LINE0,TLE_LINE1,TLE_LINE2,SEMIMAJOR_AXIS,PERIOD,APOGEE,PERIGEE,DECAYED
52465.0,STARLINK-3863,PAYLOAD,2022-08-17 16:00:00,15.08813637,0.0001771999999999,53.2118,125.1496,53.9594,100.5666,0.0022197,0.0003519,0.0,0 STARLINK-3863,1 52465U 22049Q   22229.66667824  .00035190  00000-0  22197-2 0  9992,2 52465  53.2118 125.1496 0001772  53.9594 100.5666 15.08813637  1304,6917.9609999999975,95.439,541.052,538.6,0.0
52465.0,STARLINK-3863,PAYLOAD,2022-08-18 08:00:01,15.08866234,0.0001909999999999,53.2118,122.1576,48.1621,129.5419,-0.00096924,-0.00015692,0.0,0 STARLINK-3863,1 52465U 22049Q   22230.33334491 -.00015692  00000-0 -96924-3 0  9996,2 52465  53.2118 122.1576 0001910  48.1621 129.5419 15.08866234 16383,6917.8,95.436,540.987,538.344,0.0
52465.0,STARLINK-3863,PAYLOAD,2022-08-18 14:00:01,15.08847947,0.0001774999999999,53.212,121.034,52.0485,44.3762,0.001727,0.0002731,0.0,0 STARLINK-3863,1 52465U 22049Q   22230.58334491  .00027310  00000-0  17270-2 0  9997,2 52465  53.2120 121.0340 0001775  52.0485  44.3762 15.08847947  1305,6917.856,95.437,540.9490000000002,538.493,0.0
52465.0,STARLINK-3863,PAYLOAD,2022-08-18 22:00:00,15.08860411,0.0001876999999999,53.2124,119.5389,49.0843,58.9615,-0.0010670999999999,-0.00017241,0.0,0 STARLINK-3863,1 52465U 22049Q   22230.91667824 -.00017241  00000-0 -10671-2 0  9995,2 52465  53.2124 119.5389 0001877  49.0843  58.9615 15.08860411  1300,6917.818,95.436,540.981,538.385,0.0
52465.0,STARLINK-3863,PAYLOAD,2022-08-19 14:00:01,15.08820244,0.0001675,53.2127,116.5443,50.2598,80.9451,0.0021173,0.00033552,0.0,0 STARLINK-3863,1 52465U 22049Q   22231.58334491  .00033552  00000-0  21173-2 0  9990,2 52465  53.2127 116.5443 0001675  50.2598  80.9451 15.08820244  1301,6917.941,95.439,540.965,538.6469999999998,0.0
52465.0,STARLINK-3863,PAYLOAD,2022-08-19 16:00:00,15.08841967,0.0001682,53.2128,116.1703,52.2859,171.8081,-0.00023321,-3.998e-05,0.0,0 STARLINK-3863,1 52465U 22049Q   22231.66667824 -.00003998  00000-0 -23321-3 0  9999,2 52465  53.2128 116.1703 0001682  52.2859 171.8081 15.08841967 16587,6917.874,95.437,540.903,538.576,0.0
52465.0,STARLINK-3863,PAYLOAD,2022-08-19 22:00:00,15.08833842,0.0001804,53.2128,115.0493,46.6772,96.1131,-0.0021655,-0.00034582,0.0,0 STARLINK-3863,1 52465U 22049Q   22231.91667824 -.00034582  00000-0 -21655-2 0  9997,2 52465  53.2128 115.0493 0001804  46.6772  96.1131 15.08833842  1300,6917.899,95.438,541.012,538.516,0.0
52465.0,STARLINK-3863,PAYLOAD,2022-08-20 08:00:01,15.08839027,0.0001751,53.213,113.1783,45.445,201.8045,-0.0018157,-0.00029068,0.0,0 STARLINK-3863,1 52465U 22049Q   22232.33334491 -.00029068  00000-0 -18157-2 0  9991,2 52465  53.2130 113.1783 0001751  45.4450 201.8045 15.08839027 16682,6917.8830000000025,95.438,540.96,538.5369999999998,0.0
52465.0,STARLINK-3863,PAYLOAD,2022-08-20 14:00:01,15.08811427,0.0001654,53.2132,112.055,50.2763,115.6671,0.0028033,0.00044574,0.0,0 STARLINK-3863,1 52465U 22049Q   22232.58334491  .00044574  00000-0  28033-2 0  9999,2 52465  53.2132 112.0550 0001654  50.2763 115.6671 15.08811427  1301,6917.968000000003,95.439,540.977,538.688,0.0
52465.0,STARLINK-3863,PAYLOAD,2022-08-20 22:00:00,15.08843081,0.0001827,53.2133,110.5601,47.3341,130.191,-0.00062601,-0.00010238,0.0,0 STARLINK-3863,1 52465U 22049Q   22232.91667824 -.00010238  00000-0 -62601-3 0  9997,2 52465  53.2133 110.5601 0001827  47.3341 130.1910 15.08843081  1302,6917.871,95.437,541.0,538.472,0.0
52465.0,STARLINK-3863,PAYLOAD,2022-08-21 14:00:01,15.08804514,0.0001766,53.2134,107.5657,54.9478,145.7662,0.0024805,0.00039372,0.0,0 STARLINK-3863,1 52465U 22049Q   22233.58334491  .00039372  00000-0  24805-2 0  9993,2 52465  53.2134 107.5657 0001766  54.9478 145.7662 15.08804514  1301,6917.989000000001,95.44,541.076,538.632,0.0
52465.0,STARLINK-3863,PAYLOAD,2022-08-21 22:00:00,15.08828469,0.0001927,53.2134,106.071,51.1395,161.145,-0.00059626,-9.762e-05,0.0,0 STARLINK-3863,1 52465U 22049Q   22233.91667824 -.00009762  00000-0 -59626-3 0  9991,2 52465  53.2134 106.0710 0001927  51.1395 161.1450 15.08828469  1303,6917.916,95.438,541.114,538.448,0.0
52465.0,STARLINK-3863,PAYLOAD,2022-08-22 06:00:00,15.08844012,0.0001901,53.2131,104.5742,50.6112,173.2451,-0.0015095999999999,-0.00024236,0.0,0 STARLINK-3863,1 52465U 22049Q   22234.25001157 -.00024236  00000-0 -15096-2 0  9995,2 52465  53.2131 104.5742 0001901  50.6112 173.2451 15.08844012 16977,6917.868,95.437,541.048,538.418,0.0
52465.0,STARLINK-3863,PAYLOAD,2022-08-22 12:00:00,15.08811949,0.0001763,53.2132,103.4508,55.5929,86.9643,0.0027517,0.00043744,0.0,0 STARLINK-3863,1 52465U 22049Q   22234.50001157  .00043744  00000-0  27517-2 0  9997,2 52465  53.2132 103.4508 0001763  55.5929  86.9643 15.08811949  1309,6917.965999999999,95.439,541.0509999999998,538.611,0.0
52465.0,STARLINK-3863,PAYLOAD,2022-08-22 22:00:00,15.08839169,0.0001946,53.2131,101.582,53.2094,193.8284,-0.00035392,-5.916e-05,0.0,0 STARLINK-3863,1 52465U 22049Q   22234.91667824 -.00005916  00000-0 -35392-3 0  9993,2 52465  53.2131 101.5820 0001946  53.2094 193.8284 15.08839169 17079,6917.8830000000025,95.438,541.094,538.4019999999998,0.0
52465.0,STARLINK-3863,PAYLOAD,2022-08-23 14:00:01,15.08831934,0.0001826,53.2128,98.5874,60.1272,210.0971,0.0019733,0.0003125,0.0,0 STARLINK-3863,1 52465U 22049Q   22235.58334491  .00031250  00000-0  19733-2 0  9996,2 52465  53.2128  98.5874 0001826  60.1272 210.0971 15.08831934  1307,6917.905,95.438,541.033,538.507,0.0
52465.0,STARLINK-3863,PAYLOAD,2022-08-23 22:00:01,15.08843837,0.0001996,53.2127,97.0927,55.1392,226.7485,-0.00017127,-3.013e-05,0.0,0 STARLINK-3863,1 52465U 22049Q   22235.91668981 -.00003013  00000-0 -17127-3 0  9991,2 52465  53.2127  97.0927 0001996  55.1392 226.7485 15.08843837 17232,6917.869000000002,95.437,541.114,538.3530000000002,0.0
52465.0,STARLINK-3863,PAYLOAD,2022-08-24 14:00:01,15.08842147,0.0001879,53.2125,94.098,61.4863,243.5436,0.0017012,0.00026892,0.0,0 STARLINK-3863,1 52465U 22049Q   22236.58334491  .00026892  00000-0  17012-2 0  9991,2 52465  53.2125  94.0980 0001879  61.4863 243.5436 15.08842147  1306,6917.874,95.437,541.039,538.439,0.0
52465.0,STARLINK-3863,PAYLOAD,2022-08-24 22:00:00,15.08852577,0.0002003,53.2124,92.6032,55.1799,261.4622,-0.0025178,-0.00040151,0.0,0 STARLINK-3863,1 52465U 22049Q   22236.91667824 -.00040151  00000-0 -25178-2 0  9995,2 52465  53.2124  92.6032 0002003  55.1799 261.4622 15.08852577  1309,6917.842,95.437,541.0930000000002,538.321,0.0
52465.0,STARLINK-3863,PAYLOAD,2022-08-25 06:00:02,15.08847064,0.0001899999999999,53.2122,91.1058,54.0918,274.2029,-0.0022472,-0.00035882,0.0,0 STARLINK-3863,1 52465U 22049Q   22237.25002315 -.00035882  00000-0 -22472-2 0  9990,2 52465  53.2122  91.1058 0001900  54.0918 274.2029 15.08847064 17434,6917.859,95.437,541.038,538.409,0.0
52465.0,STARLINK-3863,PAYLOAD,2022-08-25 14:00:01,15.08825438,0.0001875,53.2124,89.6083,60.6408,279.1788,0.0016051,0.00025339,0.0,0 STARLINK-3863,1 52465U 22049Q   22237.58334491  .00025339  00000-0  16051-2 0  9999,2 52465  53.2124  89.6083 0001875  60.6408 279.1788 15.08825438  1300,6917.925,95.438,541.087,538.493,0.0
52465.0,STARLINK-3863,PAYLOAD,2022-08-25 22:00:00,15.0883025,0.0002056999999999,53.2124,88.1136,55.176,296.2351,0.00035629,5.385e-05,0.0,0 STARLINK-3863,1 52465U 22049Q   22237.91667824  .00005385  00000-0  35629-3 0  9997,2 52465  53.2124  88.1136 0002057  55.1760 296.2351 15.08830250 17532,6917.91,95.438,541.198,538.352,0.0
52465.0,STARLINK-3863,PAYLOAD,2022-08-26 14:00:01,15.08839574,0.0001954,53.2126,85.1186,61.327,313.3289,0.0012835,0.00020198,0.0,0 STARLINK-3863,1 52465U 22049Q   22238.58335648  .00020198  00000-0  12835-2 0  9999,2 52465  53.2126  85.1186 0001954  61.3270 313.3289 15.08839574  1303,6917.882,95.438,541.0980000000002,538.395,0.0
52465.0,STARLINK-3863,PAYLOAD,2022-08-26 22:00:00,15.08839267,0.0002119,53.2126,83.6238,55.8749,330.3245,0.00067607,0.00010488,0.0,0 STARLINK-3863,1 52465U 22049Q   22238.91667824  .00010488  00000-0  67607-3 0  9999,2 52465  53.2126  83.6238 0002119  55.8749 330.3245 15.08839267  1307,6917.8830000000025,95.438,541.214,538.2819999999998,0.0
52465.0,STARLINK-3863,PAYLOAD,2022-08-27 14:00:01,15.08828826,0.0001903,53.213,80.6288,60.7736,348.6264,0.00083382,0.00013003,0.0,0 STARLINK-3863,1 52465U 22049Q   22239.58334491  .00013003  00000-0  83382-3 0  9998,2 52465  53.2130  80.6288 0001903  60.7736 348.6264 15.08828826  1307,6917.915,95.438,541.096,538.4630000000002,0.0
52465.0,STARLINK-3863,PAYLOAD,2022-08-27 22:00:00,15.08823731,0.0002059,53.213,79.1339,55.2885,5.704,0.0011037,0.00017313,0.0,0 STARLINK-3863,1 52465U 22049Q   22239.91667824  .00017313  00000-0  11037-2 0  9999,2 52465  53.2130  79.1339 0002059  55.2885   5.7040 15.08823731  1307,6917.93,95.439,541.22,538.371,0.0
52465.0,STARLINK-3863,PAYLOAD,2022-08-28 14:00:01,15.08848357,0.0001909999999999,53.2132,76.139,62.0666,22.1047,0.00044098,6.739e-05,0.0,0 STARLINK-3863,1 52465U 22049Q   22240.58334491  .00006739  00000-0  44098-3 0  9999,2 52465  53.2132  76.1390 0001910  62.0666  22.1047 15.08848357  1302,6917.855,95.437,541.0409999999998,538.399,0.0
52465.0,STARLINK-3863,PAYLOAD,2022-08-28 22:00:00,15.08844499,0.0002012,53.2131,74.6441,55.6537,40.127,-0.00043585,-7.219e-05,0.0,0 STARLINK-3863,1 52465U 22049Q   22240.91667824 -.00007219  00000-0 -43585-3 0  9991,2 52465  53.2131  74.6441 0002012  55.6537  40.1270 15.08844499  1301,6917.8669999999975,95.437,541.124,538.34,0.0
52465.0,STARLINK-3863,PAYLOAD,2022-08-29 06:00:02,15.08838302,0.0001825,53.213,73.1461,58.1916,49.2533,-0.0017413,-0.00027893,0.0,0 STARLINK-3863,1 52465U 22049Q   22241.25002315 -.00027893  00000-0 -17413-2 0  9997,2 52465  53.2130  73.1461 0001825  58.1916  49.2533 15.08838302 18032,6917.886,95.438,541.013,538.488,0.0
